FLOCK 4BE-27            
1 60513U 24149AX  26197.79591476  .00005394  00000+0  16158-3 0  9992
2 60513  97.3822 279.6700 0004175 176.4882 183.6392 15.34935178106681
FLOCK 4BE-9             
1 60514U 24149AY  26197.69615951  .00011929  00000+0  28513-3 0  9996
2 60514  97.3789 282.2704 0003834 166.7214 193.4134 15.41640499106860
FLOCK 4BE-6             
1 60516U 24149BA  26197.81386966  .00009219  00000+0  23048-3 0  9990
2 60516  97.3785 281.6903 0004503 168.1521 191.9832 15.40346521106836
FLOCK 4BE-14            
1 60517U 24149BB  26197.76917732  .00010395  00000+0  24668-3 0  9992
2 60517  97.3690 281.8103 0005529 171.7333 188.4006 15.41887264106880
FLOCK 4BE-1             
1 60518U 24149BC  26197.81868156  .00011365  00000+0  25497-3 0  9993
2 60518  97.3777 283.2454 0005160 171.1965 188.9375 15.43549394106940
FLOCK 4BE-28            
1 60519U 24149BD  26198.04496228  .00027587  00000+0  55835-3 0  9999
2 60519  97.3742 284.2976 0005271 169.9373 190.1983 15.46393426107053
IPERDRONE.0             
1 60520U 24149BE  26197.83587155  .00061387  00000+0  48349-3 0  9995
2 60520  97.3770 292.6128 0004003 164.5496 195.5890 15.71268093107568
TRANSPORTER-11 OBJECT BF
1 60521U 24149BF  26197.79401968  .01228239  10621-2  10176-2 0  9999
2 60521  97.3801 296.5346 0011037 251.5408 108.4678 16.14064388107807
CONNECTA IOT-2          
1 60522U 24149BG  26197.72474199  .00002375  00000+0  10038-3 0  9994
2 60522  97.3834 275.4257 0005706 206.6598 153.4347 15.24202017106397
CONNECTA IOT-4          
1 60524U 24149BJ  26197.78520925  .00012403  00000+0  28119-3 0  9993
2 60524  97.3795 282.5273 0006157 169.8493 190.2881 15.43209040106898
ORESAT0.5               
1 60525U 24149BK  26198.02831022  .00012499  00000+0  25648-3 0  9994
2 60525  97.3723 284.5078 0006338 158.6450 201.5065 15.46153168107089
DEIMOS                  
1 60526U 24149BL  26197.88337688  .00011706  00000+0  24801-3 0  9997
2 60526  97.3781 284.4850 0006078 164.7099 195.4335 15.45232619107033
CUAVA-2                 
1 60527U 24149BM  26197.78120537  .00007432  00000+0  20910-3 0  9998
2 60527  97.3721 279.3630 0007029 173.9228 186.2103 15.36757327106713
ERNST                   
1 60528U 24149BN  26198.19731902  .00007590  00000+0  19272-3 0  9993
2 60528  97.3803 282.1571 0006383 172.3354 187.7990 15.39926230106899
TORO                    
1 60530U 24149BQ  26197.72733254  .00000575  00000+0  55596-4 0  9992
2 60530  97.6774 271.8438 0001151 102.9796 257.1554 14.96518532104379
HYPSO-2                 
1 60531U 24149BR  26197.70807751  .00001223  00000+0  10597-3 0  9997
2 60531  97.6840 273.5404 0001719  97.4356 262.7063 14.98938445104475
LEMU NGE                
1 60532U 24149BS  26197.76849983  .00001112  00000+0  10671-3 0  9997
2 60532  97.6836 272.1305 0000573  91.0536 269.0750 14.95064503104377
LEMUR-2-STELLA          
1 60533U 24149BT  26198.19094303  .00005866  00000+0  34171-3 0  9995
2 60533  97.6732 280.7889 0001224 121.9085 238.2264 15.12393884105030
SATELIOT_2              
1 60534U 24149BU  26198.18374649  .00000351  00000+0  35924-4 0  9991
2 60534  97.6821 272.5930 0001427  74.8742 285.2637 14.96461570104457
NIGHTJAR                
1 60535U 24149BV  26198.16220487  .00002234  00000+0  18838-3 0  9996
2 60535  97.6843 274.4489 0002730  92.3510 267.8026 14.99178411147365
LEMUR-2-MARHISYAM       
1 60536U 24149BW  26198.18263753  .00005814  00000+0  34433-3 0  9998
2 60536  97.6875 281.2593 0002291  66.0951 294.0519 15.11799755105012
SATELIOT_4              
1 60537U 24149BX  26197.78738820  .00000359  00000+0  36348-4 0  9993
2 60537  97.6728 271.7109 0000892 332.2460  27.8714 14.96760462104401
PICO-02A021             
1 60538U 24149BY  26197.18574799  .00001948  00000+0  14740-3 0  9997
2 60538  97.6737 275.7720 0003713 277.2422  82.8381 15.03492308104092
ICEYE-X43               
1 60539U 24149BZ  26198.18642334  .00000619  00000+0  54806-4 0  9992
2 60539  97.6794 274.7489 0006428 338.9157  21.1800 14.99789309104617
HAWK-10A                
1 60540U 24149CA  26198.19043546  .00000171  00000+0  20044-4 0  9995
2 60540  97.6886 273.5864 0002922 355.0180   5.1012 14.96593681104470
UMBRA-09                
1 60541U 24149CB  26197.78698239  .00008897  00000+0  42989-3 0  9999
2 60541  97.6973 285.5169 0002014 198.9521 161.1638 15.18878818105217
QPS-SAR-8 (AMATERU-IV)  
1 60542U 24149CC  26198.19355666  .00001767  00000+0  13094-3 0  9994
2 60542  97.6652 277.0960 0003462  37.7473 322.3995 15.04403187104787
ARCTIC WEATHER SATELLITE
1 60543U 24149CD  26197.77321940  .00000311  00000+0  38035-4 0  9993
2 60543  97.6790 267.3911 0002774  47.4964 312.6488 14.89805032103704
CAPELLA-15 (ACADIA-5)   
1 60544U 24149CE  26197.75646668  .00002154  00000+0  21575-3 0  9996
2 60544  97.6760 269.9186 0002980 339.4741  20.6358 14.92399963104269
HAWK-10B                
1 60545U 24149CF  26197.78914008  .00000202  00000+0  22717-4 0  9998
2 60545  97.6806 272.5171 0005276   8.7714 351.3599 14.96592404104419
